ONEWEB-0012             
1 44057U 19010A   25025.36550149  .00000161  00000+0  38656-3 0  9996
2 44057  87.9123 329.9954 0001344 106.6673 253.4606 13.16594351284743
ONEWEB-0010             
1 44058U 19010B   25025.39081737  .00001140  00000+0  29482-2 0  9996
2 44058  87.9126 329.9720 0002037  93.3103 266.8260 13.16604233284798
ONEWEB-0008             
1 44059U 19010C   25025.34016344  .00000056  00000+0  11159-3 0  9992
2 44059  87.9124 329.9829 0001866  73.8232 286.3104 13.16595719284907
ONEWEB-0007             
1 44060U 19010D   25025.42820211  .00000040  00000+0  71358-4 0  9990
2 44060  87.9097   0.3194 0001595  95.9688 264.1624 13.15549637284618
ONEWEB-0006             
1 44061U 19010E   25025.43217125  .00000081  00000+0  18000-3 0  9995
2 44061  87.9087   0.2813 0001792  93.9508 266.1827 13.15549039284661
ONEWEB-0011             
1 44062U 19010F   25025.47812326 -.00000036  00000+0 -13037-3 0  9991
2 44062  87.9090   0.2775 0002057  86.6640 273.4725 13.15546900284666
ONEWEB-0013             
1 45131U 20008A   25025.41132389  .00000624  00000+0  17762-2 0  9995
2 45131  87.8661 155.1531 0000556 113.2982 246.8203 13.09413084239614
ONEWEB-0017             
1 45132U 20008B   25025.37507743  .00000636  00000+0  17851-2 0  9993
2 45132  87.8917 137.4585 0001882 111.0898 249.0430 13.10372914241445
